[{"OBJECT_NAME":"BANDWAGON-2 OBJECT D","OBJECT_ID":"2024-247D","EPOCH":"2026-03-09T12:32:33.670752","MEAN_MOTION":15.29076102,"ECCENTRICITY":0.00034883,"INCLINATION":44.9954,"RA_OF_ASC_NODE":115.671,"ARG_OF_PERICENTER":351.1453,"MEAN_ANOMALY":8.9368,"EPHEMERIS_TYPE":0,"CLASSIFICATION_TYPE":"U","NORAD_CAT_ID":62380,"ELEMENT_SET_NO":999,"REV_AT_EPOCH":6773,"BSTAR":0.00040119131,"MEAN_MOTION_DOT":0.00011259,"MEAN_MOTION_DDOT":0},{"OBJECT_NAME":"STARLINK-36122","OBJECT_ID":"2025-286AD","EPOCH":"2026-03-09T04:21:40.738464","MEAN_MOTION":15.30185779,"ECCENTRICITY":0.00010131,"INCLINATION":53.1591,"RA_OF_ASC_NODE":1.1881,"ARG_OF_PERICENTER":73.135,"MEAN_ANOMALY":286.9762,"EPHEMERIS_TYPE":0,"CLASSIFICATION_TYPE":"U","NORAD_CAT_ID":66952,"ELEMENT_SET_NO":999,"REV_AT_EPOCH":1533,"BSTAR":0.001088633,"MEAN_MOTION_DOT":0.00032008,"MEAN_MOTION_DDOT":0}]
