BANDWAGON-2 OBJECT D    
1 62380U 24247D   26068.52261193  .00011259  00000+0  40119-3 0  9994
2 62380  44.9954 115.6710 0003488 351.1453   8.9368 15.29076102 67732
STARLINK-36122          
1 66952U 25286AD  26068.18172151  .00032008  00000+0  10886-2 0  9996
2 66952  53.1591   1.1881 0001013  73.1350 286.9762 15.30185779 15335
